STARLINK-31879          
1 59937U 24106R   26068.13999741 -.00001318  00000+0 -38392-4 0  9994
2 59937  43.0029 336.0628 0001412 259.6314 100.4379 15.27580603100483
TEVEL2-7                
1 63238U 25052AE  26068.66113295  .00019244  00000+0  69668-3 0  9998
2 63238  97.4054 324.3041 0008105 124.6830 235.5175 15.28414096 54803
